STARLINK-2037
1 17653C 21012AK  21326.11943300 -.00016013  00000-0 -10730-2 0  3266
2 17653  53.0535 253.1987 0001843  64.8866  12.9960 15.06410520    19
